OBJECT_NAME,OBJECT_ID,EPOCH,MEAN_MOTION,ECCENTRICITY,INCLINATION,RA_OF_ASC_NODE,ARG_OF_PERICENTER,MEAN_ANOMALY,EPHEMERIS_TYPE,CLASSIFICATION_TYPE,NORAD_CAT_ID,ELEMENT_SET_NO,REV_AT_EPOCH,BSTAR,MEAN_MOTION_DOT,MEAN_MOTION_DDOT
SAUDISAT 1C (SO-50),2002-058C,2026-07-14T20:52:02.049888,14.83098045,.00745424,64.5518,43.3332,257.3268,101.9497,0,U,27607,999,26856,.62486709E-4,.377E-5,0
SAUDISAT 2,2004-025F,2026-07-14T23:38:56.781888,14.56698195,.00240556,98.5520,196.6871,208.8633,151.1235,0,U,28371,999,16979,.33485952E-4,.1E-5,0
SAUDISAT 3,2007-012B,2026-07-14T20:49:07.691232,14.71440220,.00155742,98.1467,146.2884,135.6886,224.5570,0,U,31118,999,3181,.23873851E-4,.97E-6,0
PISAT,2016-059B,2026-07-14T22:26:02.083776,14.69029444,.00304391,97.8191,195.1967,115.6353,244.8003,0,U,41784,999,52381,.84898027E-4,.454E-5,0
FLYING LAPTOP,2017-042G,2026-07-14T23:31:22.215072,15.01312390,.00197205,97.4798,350.4668,33.1862,327.0595,0,U,42831,999,49062,.16448539E-3,.2067E-4,0
SALSAT,2020-068K,2026-07-14T13:10:14.011392,15.30166467,.0009148,97.8856,200.2874,195.2534,164.8431,0,U,46495,999,31954,.14541E-3,.4163E-4,0
